ONEWEB-0108             
1 48076U 21025AL  24002.92218821 -.00000055  00000+0 -18474-3 0  9994
2 48076  87.9004 138.6098 0001260 110.0056 250.1209 13.13468646135990
ONEWEB-0169             
1 48077U 21025AM  24002.87776938  .00000004  00000+0 -24252-4 0  9992
2 48077  87.9004 138.6242 0001204 103.7057 256.4206 13.13470445134647
ONEWEB-0176             
1 48210U 21031A   24002.73985258  .00001477  00000+0  39503-2 0  9997
2 48210  87.8985 108.1360 0001615 109.7474 250.3830 13.14498817130546
ONEWEB-0184             
1 48211U 21031B   24002.78899256 -.00000098  00000+0 -29934-3 0  9993
2 48211  87.8980 108.1158 0002643 115.2116 244.9288 13.14503112130523
ONEWEB-0179             
1 48212U 21031C   24002.83498500  .00000006  00000+0 -18324-4 0  9997
2 48212  87.8989 108.1039 0001643  99.6831 260.4484 13.14502245130571
ONEWEB-0180             
1 48213U 21031D   24002.79216468 -.00000021  00000+0 -90828-4 0  9991
2 48213  87.8983 108.1147 0001785  98.8194 261.3138 13.14502497130458
ONEWEB-0218             
1 48214U 21031E   24002.73825135  .00000287  00000+0  74052-3 0  9995
2 48214  87.8983 108.1274 0002880 109.2557 250.8885 13.14501750130607
ONEWEB-0209             
1 48215U 21031F   24002.80325981  .00000189  00000+0  47587-3 0  9992
2 48215  87.8973 108.1463 0001625 101.5443 258.5870 13.14505011130616
